[{"OBJECT_NAME":"LUCH","OBJECT_ID":"1994-082A","EPOCH":"2026-03-28T15:57:30.785760","MEAN_MOTION":1.00176738,"ECCENTRICITY":0.0004499,"INCLINATION":14.7535,"RA_OF_ASC_NODE":355.2247,"ARG_OF_PERICENTER":228.5812,"MEAN_ANOMALY":131.3643,"EPHEMERIS_TYPE":0,"CLASSIFICATION_TYPE":"U","NORAD_CAT_ID":23426,"ELEMENT_SET_NO":999,"REV_AT_EPOCH":11445,"BSTAR":0,"MEAN_MOTION_DOT":-2.91e-6,"MEAN_MOTION_DDOT":0},{"OBJECT_NAME":"SL-12 R/B(2)","OBJECT_ID":"1994-082D","EPOCH":"2026-03-28T16:39:03.182112","MEAN_MOTION":1.00800534,"ECCENTRICITY":0.00266678,"INCLINATION":14.5834,"RA_OF_ASC_NODE":354.7141,"ARG_OF_PERICENTER":137.3583,"MEAN_ANOMALY":43.5515,"EPHEMERIS_TYPE":0,"CLASSIFICATION_TYPE":"U","NORAD_CAT_ID":23429,"ELEMENT_SET_NO":999,"REV_AT_EPOCH":11508,"BSTAR":0,"MEAN_MOTION_DOT":-3.73e-6,"MEAN_MOTION_DDOT":0},{"OBJECT_NAME":"RADUGA 32","OBJECT_ID":"1994-087A","EPOCH":"2026-03-28T16:52:45.757632","MEAN_MOTION":1.00275745,"ECCENTRICITY":0.0008385,"INCLINATION":14.3294,"RA_OF_ASC_NODE":351.5842,"ARG_OF_PERICENTER":270.9278,"MEAN_ANOMALY":256.7998,"EPHEMERIS_TYPE":0,"CLASSIFICATION_TYPE":"U","NORAD_CAT_ID":23448,"ELEMENT_SET_NO":999,"REV_AT_EPOCH":13207,"BSTAR":0,"MEAN_MOTION_DOT":-1.71e-6,"MEAN_MOTION_DDOT":0},{"OBJECT_NAME":"SL-12 R/B(2)","OBJECT_ID":"1994-087D","EPOCH":"2026-03-28T20:06:02.786400","MEAN_MOTION":1.00069475,"ECCENTRICITY":0.00090769,"INCLINATION":14.351,"RA_OF_ASC_NODE":351.5979,"ARG_OF_PERICENTER":131.8967,"MEAN_ANOMALY":42.2622,"EPHEMERIS_TYPE":0,"CLASSIFICATION_TYPE":"U","NORAD_CAT_ID":23451,"ELEMENT_SET_NO":999,"REV_AT_EPOCH":4647,"BSTAR":0,"MEAN_MOTION_DOT":1.08e-6,"MEAN_MOTION_DDOT":0},{"OBJECT_NAME":"UFO 4 (USA 108)","OBJECT_ID":"1995-003A","EPOCH":"2026-03-28T15:18:38.695104","MEAN_MOTION":1.00268499,"ECCENTRICITY":0.0003928,"INCLINATION":9.692,"RA_OF_ASC_NODE":13.4929,"ARG_OF_PERICENTER":334.4191,"MEAN_ANOMALY":240.266,"EPHEMERIS_TYPE":0,"CLASSIFICATION_TYPE":"U","NORAD_CAT_ID":23467,"ELEMENT_SET_NO":999,"REV_AT_EPOCH":11414,"BSTAR":0,"MEAN_MOTION_DOT":-3.5e-7,"MEAN_MOTION_DDOT":0},{"OBJECT_NAME":"HIMAWARI-5 AKM","OBJECT_ID":"1995-011D","EPOCH":"2026-03-29T04:08:23.453088","MEAN_MOTION":1.01257589,"ECCENTRICITY":0.0220995,"INCLINATION":13.6421,"RA_OF_ASC_NODE":348.8147,"ARG_OF_PERICENTER":13.0347,"MEAN_ANOMALY":176.17,"EPHEMERIS_TYPE":0,"CLASSIFICATION_TYPE":"U","NORAD_CAT_ID":23524,"ELEMENT_SET_NO":999,"REV_AT_EPOCH":4627,"BSTAR":0,"MEAN_MOTION_DOT":-3.79e-6,"MEAN_MOTION_DDOT":0},{"OBJECT_NAME":"TITAN 4 CENTAUR R/B","OBJECT_ID":"1995-022B","EPOCH":"2026-03-27T20:12:39.071232","MEAN_MOTION":1.00559532,"ECCENTRICITY":0.00098589,"INCLINATION":18.2578,"RA_OF_ASC_NODE":6.9901,"ARG_OF_PERICENTER":342.082,"MEAN_ANOMALY":17.8654,"EPHEMERIS_TYPE":0,"CLASSIFICATION_TYPE":"U","NORAD_CAT_ID":23568,"ELEMENT_SET_NO":999,"REV_AT_EPOCH":2508,"BSTAR":0,"MEAN_MOTION_DOT":-6.8e-7,"MEAN_MOTION_DDOT":0},{"OBJECT_NAME":"SL-6 R/B(2)","OBJECT_ID":"1995-026D","EPOCH":"2026-03-12T04:32:47.122656","MEAN_MOTION":2.0331261,"ECCENTRICITY":0.6465133,"INCLINATION":66.6538,"RA_OF_ASC_NODE":213.0961,"ARG_OF_PERICENTER":33.6729,"MEAN_ANOMALY":354.1119,"EPHEMERIS_TYPE":0,"CLASSIFICATION_TYPE":"U","NORAD_CAT_ID":23587,"ELEMENT_SET_NO":999,"REV_AT_EPOCH":22861,"BSTAR":0,"MEAN_MOTION_DOT":1.44e-6,"MEAN_MOTION_DDOT":0},{"OBJECT_NAME":"TDRS 7","OBJECT_ID":"1995-035B","EPOCH":"2026-03-28T17:19:38.578656","MEAN_MOTION":1.00270113,"ECCENTRICITY":0.00092198,"INCLINATION":13.4109,"RA_OF_ASC_NODE":348.7422,"ARG_OF_PERICENTER":54.013,"MEAN_ANOMALY":132.357,"EPHEMERIS_TYPE":0,"CLASSIFICATION_TYPE":"U","NORAD_CAT_ID":23613,"ELEMENT_SET_NO":999,"REV_AT_EPOCH":11244,"BSTAR":0,"MEAN_MOTION_DOT":-2.51e-6,"MEAN_MOTION_DDOT":0},{"OBJECT_NAME":"IUS R/B(2)","OBJECT_ID":"1995-035D","EPOCH":"2026-03-27T13:03:00.730944","MEAN_MOTION":1.00494583,"ECCENTRICITY":0.0008914,"INCLINATION":15.7175,"RA_OF_ASC_NODE":342.3984,"ARG_OF_PERICENTER":181.6569,"MEAN_ANOMALY":63.745,"EPHEMERIS_TYPE":0,"CLASSIFICATION_TYPE":"U","NORAD_CAT_ID":23615,"ELEMENT_SET_NO":999,"REV_AT_EPOCH":11258,"BSTAR":0,"MEAN_MOTION_DOT":8.4e-7,"MEAN_MOTION_DDOT":0},{"OBJECT_NAME":"TITAN 34D TRANSTAGE DEB","OBJECT_ID":"1988-077N","EPOCH":"2026-03-28T14:48:23.757696","MEAN_MOTION":2.01463791,"ECCENTRICITY":0.7348212,"INCLINATION":26.5676,"RA_OF_ASC_NODE":164.9751,"ARG_OF_PERICENTER":191.3066,"MEAN_ANOMALY":131.6869,"EPHEMERIS_TYPE":0,"CLASSIFICATION_TYPE":"U","NORAD_CAT_ID":23619,"ELEMENT_SET_NO":999,"REV_AT_EPOCH":889,"BSTAR":0.0019241,"MEAN_MOTION_DOT":-3.85e-6,"MEAN_MOTION_DDOT":0},{"OBJECT_NAME":"ARIANE 42L+3 R/B","OBJECT_ID":"1995-040B","EPOCH":"2026-03-29T01:58:16.157280","MEAN_MOTION":2.18801037,"ECCENTRICITY":0.7204152,"INCLINATION":4.7749,"RA_OF_ASC_NODE":5.5188,"ARG_OF_PERICENTER":315.2503,"MEAN_ANOMALY":5.0975,"EPHEMERIS_TYPE":0,"CLASSIFICATION_TYPE":"U","NORAD_CAT_ID":23637,"ELEMENT_SET_NO":999,"REV_AT_EPOCH":24482,"BSTAR":-0.00047327,"MEAN_MOTION_DOT":-1.3e-6,"MEAN_MOTION_DDOT":0},{"OBJECT_NAME":"KOREASAT 1","OBJECT_ID":"1995-041A","EPOCH":"2026-03-28T13:44:33.802944","MEAN_MOTION":0.99673345,"ECCENTRICITY":0.000479,"INCLINATION":14.7086,"RA_OF_ASC_NODE":359.2289,"ARG_OF_PERICENTER":312.9164,"MEAN_ANOMALY":220.7051,"EPHEMERIS_TYPE":0,"CLASSIFICATION_TYPE":"U","NORAD_CAT_ID":23639,"ELEMENT_SET_NO":999,"REV_AT_EPOCH":11172,"BSTAR":0,"MEAN_MOTION_DOT":-3.55e-6,"MEAN_MOTION_DDOT":0},{"OBJECT_NAME":"MOLNIYA 3-47","OBJECT_ID":"1995-042A","EPOCH":"2026-03-27T07:39:20.371392","MEAN_MOTION":2.01922929,"ECCENTRICITY":0.6733686,"INCLINATION":64.905,"RA_OF_ASC_NODE":276.9818,"ARG_OF_PERICENTER":270.4176,"MEAN_ANOMALY":18.9215,"EPHEMERIS_TYPE":0,"CLASSIFICATION_TYPE":"U","NORAD_CAT_ID":23642,"ELEMENT_SET_NO":999,"REV_AT_EPOCH":22486,"BSTAR":0,"MEAN_MOTION_DOT":3.92e-6,"MEAN_MOTION_DDOT":0},{"OBJECT_NAME":"SL-6 R/B(2)","OBJECT_ID":"1995-042D","EPOCH":"2026-03-23T06:04:13.734336","MEAN_MOTION":1.99197259,"ECCENTRICITY":0.70329687,"INCLINATION":64.8565,"RA_OF_ASC_NODE":324.2637,"ARG_OF_PERICENTER":271.9357,"MEAN_ANOMALY":15.9953,"EPHEMERIS_TYPE":0,"CLASSIFICATION_TYPE":"U","NORAD_CAT_ID":23645,"ELEMENT_SET_NO":999,"REV_AT_EPOCH":22021,"BSTAR":0,"MEAN_MOTION_DOT":9.62e-6,"MEAN_MOTION_DDOT":0},{"OBJECT_NAME":"ATLAS 2 CENTAUR R/B(2)","OBJECT_ID":"1995-038C","EPOCH":"2026-03-28T04:46:54.667776","MEAN_MOTION":1.01269774,"ECCENTRICITY":0.0022706,"INCLINATION":13.7642,"RA_OF_ASC_NODE":345.9055,"ARG_OF_PERICENTER":303.2713,"MEAN_ANOMALY":56.4969,"EPHEMERIS_TYPE":0,"CLASSIFICATION_TYPE":"U","NORAD_CAT_ID":23648,"ELEMENT_SET_NO":999,"REV_AT_EPOCH":2526,"BSTAR":0,"MEAN_MOTION_DOT":-3.4e-6,"MEAN_MOTION_DDOT":0},{"OBJECT_NAME":"COSMOS 2319","OBJECT_ID":"1995-045A","EPOCH":"2026-03-28T15:21:17.030016","MEAN_MOTION":1.00195036,"ECCENTRICITY":0.00063129,"INCLINATION":14.3651,"RA_OF_ASC_NODE":353.3243,"ARG_OF_PERICENTER":269.606,"MEAN_ANOMALY":273.518,"EPHEMERIS_TYPE":0,"CLASSIFICATION_TYPE":"U","NORAD_CAT_ID":23653,"ELEMENT_SET_NO":999,"REV_AT_EPOCH":11198,"BSTAR":0,"MEAN_MOTION_DOT":-3.88e-6,"MEAN_MOTION_DDOT":0}]
