LUCH                    
1 23426U 94082A   26087.66493965 -.00000291  00000+0  00000+0 0  9992
2 23426  14.7535 355.2247 0004499 228.5812 131.3643  1.00176738114455
SL-12 R/B(2)            
1 23429U 94082D   26087.69378683 -.00000373  00000+0  00000+0 0  9998
2 23429  14.5834 354.7141 0026667 137.3583  43.5515  1.00800534115088
RADUGA 32               
1 23448U 94087A   26087.70330738 -.00000171  00000+0  00000+0 0  9991
2 23448  14.3294 351.5842 0008385 270.9278 256.7998  1.00275745132073
SL-12 R/B(2)            
1 23451U 94087D   26087.83753225  .00000108  00000+0  00000+0 0  9998
2 23451  14.3510 351.5979 0009076 131.8967  42.2622  1.00069475 46478
UFO 4 (USA 108)         
1 23467U 95003A   26087.63794786 -.00000035  00000+0  00000+0 0  9999
2 23467   9.6920  13.4929 0003928 334.4191 240.2660  1.00268499114145
HIMAWARI-5 AKM          
1 23524U 95011D   26088.17249367 -.00000379  00000+0  00000+0 0  9993
2 23524  13.6421 348.8147 0220995  13.0347 176.1700  1.01257589 46274
TITAN 4 CENTAUR R/B     
1 23568U 95022B   26086.84211888 -.00000068  00000+0  00000+0 0  9997
2 23568  18.2578   6.9901 0009858 342.0820  17.8654  1.00559532 25087
SL-6 R/B(2)             
1 23587U 95026D   26071.18943429  .00000144  00000+0  00000+0 0  9990
2 23587  66.6538 213.0961 6465133  33.6729 354.1119  2.03312610228612
TDRS 7                  
1 23613U 95035B   26087.72197429 -.00000251  00000+0  00000+0 0  9998
2 23613  13.4109 348.7422 0009219  54.0130 132.3570  1.00270113112447
IUS R/B(2)              
1 23615U 95035D   26086.54375846  .00000084  00000+0  00000+0 0  9993
2 23615  15.7175 342.3984 0008914 181.6569  63.7450  1.00494583112582
TITAN 34D TRANSTAGE DEB 
1 23619U 88077N   26087.61694164 -.00000385  00000+0  19241-2 0  9996
2 23619  26.5676 164.9751 7348212 191.3066 131.6869  2.01463791  8893
ARIANE 42L+3 R/B        
1 23637U 95040B   26088.08213145 -.00000130  00000+0 -47327-3 0  9998
2 23637   4.7749   5.5188 7204152 315.2503   5.0975  2.18801037244827
KOREASAT 1              
1 23639U 95041A   26087.57261346 -.00000355  00000+0  00000+0 0  9991
2 23639  14.7086 359.2289 0004790 312.9164 220.7051  0.99673345111720
MOLNIYA 3-47            
1 23642U 95042A   26086.31898578  .00000392  00000+0  00000+0 0  9990
2 23642  64.9050 276.9818 6733686 270.4176  18.9215  2.01922929224864
SL-6 R/B(2)             
1 23645U 95042D   26082.25293674  .00000962  00000+0  00000+0 0  9991
2 23645  64.8565 324.2637 7032968 271.9357  15.9953  1.99197259220213
ATLAS 2 CENTAUR R/B(2)  
1 23648U 95038C   26087.19924384 -.00000340  00000+0  00000+0 0  9997
2 23648  13.7642 345.9055 0022706 303.2713  56.4969  1.01269774 25266
COSMOS 2319             
1 23653U 95045A   26087.63978044 -.00000388  00000+0  00000+0 0  9994
2 23653  14.3651 353.3243 0006312 269.6060 273.5180  1.00195036111986
